ONEWEB-0228             
1 48780U 21045P   23226.11926626  .00000182  00000+0  44894-3 0  9999
2 48780  87.8989 105.9019 0001685  84.5695 275.5627 13.15545952108979
